{
  "links" : {
    "next" : "https://api.nasa.gov/neo/rest/v1/feed?start_date=2016-02-23&end_date=2016-02-23&detailed=true&api_key=t0TVs3DtDT2H8Oy2Zy8m2eVrNsAVKAexjcZXUckd",
    "prev" : "https://api.nasa.gov/neo/rest/v1/feed?start_date=2016-02-21&end_date=2016-02-21&detailed=true&api_key=t0TVs3DtDT2H8Oy2Zy8m2eVrNsAVKAexjcZXUckd",
    "self" : "https://api.nasa.gov/neo/rest/v1/feed?start_date=2016-02-22&end_date=2016-02-22&detailed=true&api_key=t0TVs3DtDT2H8Oy2Zy8m2eVrNsAVKAexjcZXUckd"
  },
  "element_count" : 8,
  "near_earth_objects" : {
    "2016-02-22" : [ {
      "links" : {
        "self" : "https://api.nasa.gov/neo/rest/v1/neo/3742124?api_key=t0TVs3DtDT2H8Oy2Zy8m2eVrNsAVKAexjcZXUckd"
      },
      "neo_reference_id" : "3742124",
      "name" : "(2016 CW31)",
      "nasa_jpl_url" : "http://ssd.jpl.nasa.gov/sbdb.cgi?sstr=3742124",
      "absolute_magnitude_h" : 21.3,
      "estimated_diameter" : {
        "kilometers" : {
          "estimated_diameter_min" : 0.1460679643,
          "estimated_diameter_max" : 0.3266178974
        },
        "meters" : {
          "estimated_diameter_min" : 146.0679642714,
          "estimated_diameter_max" : 326.6178974458
        },
        "miles" : {
          "estimated_diameter_min" : 0.090762397,
          "estimated_diameter_max" : 0.2029508896
        },
        "feet" : {
          "estimated_diameter_min" : 479.2256199,
          "estimated_diameter_max" : 1071.581062656
        }
      },
      "is_potentially_hazardous_asteroid" : false,
      "close_approach_data" : [ {
        "close_approach_date" : "2016-02-22",
        "epoch_date_close_approach" : 1456128000000,
        "relative_velocity" : {
          "kilometers_per_second" : "9.2312470129",
          "kilometers_per_hour" : "33232.4892464419",
          "miles_per_hour" : "20649.3764431572"
        },
        "miss_distance" : {
          "astronomical" : "0.3193465915",
          "lunar" : "124.2258148193",
          "kilometers" : "47773568",
          "miles" : "29685120"
        },
        "orbiting_body" : "Earth"
      } ],
      "orbital_data" : {
        "orbit_id" : "6",
        "orbit_determination_date" : "2017-04-06 08:28:34",
        "orbit_uncertainty" : "5",
        "minimum_orbit_intersection" : ".178283",
        "jupiter_tisserand_invariant" : "4.313",
        "epoch_osculation" : "2458000.5",
        "eccentricity" : ".3099669097257062",
        "semi_major_axis" : "1.567346573493181",
        "inclination" : "17.84057700733177",
        "ascending_node_longitude" : "324.0731027692752",
        "orbital_period" : "716.7141603534731",
        "perihelion_distance" : "1.081520999638325",
        "perihelion_argument" : "235.4478919035021",
        "aphelion_distance" : "2.053172147348037",
        "perihelion_time" : "2458220.772579769728",
        "mean_anomaly" : "249.3587805241725",
        "mean_motion" : ".5022922943540744",
        "equinox" : "J2000"
      }
    }, {
      "links" : {
        "self" : "https://api.nasa.gov/neo/rest/v1/neo/3742049?api_key=t0TVs3DtDT2H8Oy2Zy8m2eVrNsAVKAexjcZXUckd"
      },
      "neo_reference_id" : "3742049",
      "name" : "(2016 CU30)",
      "nasa_jpl_url" : "http://ssd.jpl.nasa.gov/sbdb.cgi?sstr=3742049",
      "absolute_magnitude_h" : 21.6,
      "estimated_diameter" : {
        "kilometers" : {
          "estimated_diameter_min" : 0.1272198785,
          "estimated_diameter_max" : 0.2844722965
        },
        "meters" : {
          "estimated_diameter_min" : 127.2198785394,
          "estimated_diameter_max" : 284.4722965033
        },
        "miles" : {
          "estimated_diameter_min" : 0.0790507431,
          "estimated_diameter_max" : 0.1767628354
        },
        "feet" : {
          "estimated_diameter_min" : 417.3880663071,
          "estimated_diameter_max" : 933.3080892598
        }
      },
      "is_potentially_hazardous_asteroid" : false,
      "close_approach_data" : [ {
        "close_approach_date" : "2016-02-22",
        "epoch_date_close_approach" : 1456128000000,
        "relative_velocity" : {
          "kilometers_per_second" : "16.773592807",
          "kilometers_per_hour" : "60384.9341050445",
          "miles_per_hour" : "37520.8497498817"
        },
        "miss_distance" : {
          "astronomical" : "0.2158687249",
          "lunar" : "83.9729309082",
          "kilometers" : "32293502",
          "miles" : "20066252"
        },
        "orbiting_body" : "Earth"
      } ],
      "orbital_data" : {
        "orbit_id" : "17",
        "orbit_determination_date" : "2017-08-10 06:19:42",
        "orbit_uncertainty" : "5",
        "minimum_orbit_intersection" : ".196267",
        "jupiter_tisserand_invariant" : "2.748",
        "epoch_osculation" : "2458000.5",
        "eccentricity" : ".6420466516076252",
        "semi_major_axis" : "3.035436794446848",
        "inclination" : "27.98735444369181",
        "ascending_node_longitude" : "140.7768817117321",
        "orbital_period" : "1931.657915866259",
        "perihelion_distance" : "1.086544764405666",
        "perihelion_argument" : "43.69973994158157",
        "aphelion_distance" : "4.984328824488029",
        "perihelion_time" : "2457474.270665965857",
        "mean_anomaly" : "98.07252034443954",
        "mean_motion" : ".1863684025225329",
        "equinox" : "J2000"
      }
    }, {
      "links" : {
        "self" : "https://api.nasa.gov/neo/rest/v1/neo/3769877?api_key=t0TVs3DtDT2H8Oy2Zy8m2eVrNsAVKAexjcZXUckd"
      },
      "neo_reference_id" : "3769877",
      "name" : "(2017 DR35)",
      "nasa_jpl_url" : "http://ssd.jpl.nasa.gov/sbdb.cgi?sstr=3769877",
      "absolute_magnitude_h" : 26.3,
      "estimated_diameter" : {
        "kilometers" : {
          "estimated_diameter_min" : 0.0146067964,
          "estimated_diameter_max" : 0.0326617897
        },
        "meters" : {
          "estimated_diameter_min" : 14.6067964271,
          "estimated_diameter_max" : 32.6617897446
        },
        "miles" : {
          "estimated_diameter_min" : 0.0090762397,
          "estimated_diameter_max" : 0.020295089
        },
        "feet" : {
          "estimated_diameter_min" : 47.92256199,
          "estimated_diameter_max" : 107.1581062656
        }
      },
      "is_potentially_hazardous_asteroid" : false,
      "close_approach_data" : [ {
        "close_approach_date" : "2016-02-22",
        "epoch_date_close_approach" : 1456128000000,
        "relative_velocity" : {
          "kilometers_per_second" : "16.7946217643",
          "kilometers_per_hour" : "60460.6383516535",
          "miles_per_hour" : "37567.8894246705"
        },
        "miss_distance" : {
          "astronomical" : "0.3760990958",
          "lunar" : "146.3025512695",
          "kilometers" : "56263628",
          "miles" : "34960596"
        },
        "orbiting_body" : "Earth"
      } ],
      "orbital_data" : {
        "orbit_id" : "5",
        "orbit_determination_date" : "2017-04-06 08:20:01",
        "orbit_uncertainty" : "7",
        "minimum_orbit_intersection" : ".0263561",
        "jupiter_tisserand_invariant" : "5.886",
        "epoch_osculation" : "2458000.5",
        "eccentricity" : ".1691126353117406",
        "semi_major_axis" : "1.039519563136171",
        "inclination" : "2.672196004853152",
        "ascending_node_longitude" : "128.8118688332551",
        "orbital_period" : "387.1216206416118",
        "perihelion_distance" : ".8637236703561035",
        "perihelion_argument" : "125.7025308378981",
        "aphelion_distance" : "1.215315455916238",
        "perihelion_time" : "2457893.786691937982",
        "mean_anomaly" : "99.23700680590953",
        "mean_motion" : ".9299403102398139",
        "equinox" : "J2000"
      }
    } ]
  }
}